{
  "type": "FeatureCollection",
  "features": [
    {
      "type": "Feature",
      "properties": {
        "norad_id": 35585,
        "name": "COSMOS 2251 DEB",
        "group": "cosmos-2251-debris",
        "lat": 71.51303676481307,
        "lon": 24.074387007412238,
        "alt_km": 1176.4290645002548,
        "timestamp": "2025-12-26T21:25:53.405749+00:00",
        "meta_object_name": "COSMOS 2251 DEB",
        "meta_object_id": "1993-036AMC",
        "meta_epoch": "2025-12-21T09:07:18.442848",
        "meta_mean_motion": 13.75269672,
        "meta_eccentricity": 0.03103986,
        "meta_inclination": 73.9717,
        "meta_ra_of_asc_node": 333.9847,
        "meta_arg_of_pericenter": 244.5384,
        "meta_mean_anomaly": 273.7703,
        "meta_ephemeris_type": 0,
        "meta_classification_type": "U",
        "meta_norad_cat_id": 35585,
        "meta_element_set_no": 999,
        "meta_rev_at_epoch": 64182,
        "meta_bstar": 0.00073727274,
        "meta_mean_motion_dot": 9.8e-06,
        "meta_mean_motion_ddot": 0,
        "tle_line1": "1 35585U 93036AMC 25355.38007457  .00000980  00000+0  73727-3 0  9996",
        "tle_line2": "2 35585  73.9717 333.9847 0310398 244.5384 273.7703 13.75269672641821"
      },
      "geometry": {
        "type": "Point",
        "coordinates": [
          24.074387007412238,
          71.51303676481307
        ]
      }
    },
    {
      "type": "Feature",
      "properties": {
        "norad_id": 35586,
        "name": "COSMOS 2251 DEB",
        "group": "cosmos-2251-debris",
        "lat": 7.096948620179044,
        "lon": 97.75928963486572,
        "alt_km": 782.7000016712773,
        "timestamp": "2025-12-26T21:25:53.405760+00:00",
        "meta_object_name": "COSMOS 2251 DEB",
        "meta_object_id": "1993-036AMD",
        "meta_epoch": "2025-12-26T12:34:40.833408",
        "meta_mean_motion": 13.5209486,
        "meta_eccentricity": 0.04041385,
        "meta_inclination": 74.0201,
        "meta_ra_of_asc_node": 280.3945,
        "meta_arg_of_pericenter": 152.7777,
        "meta_mean_anomaly": 23.2121,
        "meta_ephemeris_type": 0,
        "meta_classification_type": "U",
        "meta_norad_cat_id": 35586,
        "meta_element_set_no": 999,
        "meta_rev_at_epoch": 60568,
        "meta_bstar": 0.00041332665,
        "meta_mean_motion_dot": 4.35e-06,
        "meta_mean_motion_ddot": 0,
        "tle_line1": "1 35586U 93036AMD 25360.52408372  .00000435  00000+0  41333-3 0  9993",
        "tle_line2": "2 35586  74.0201 280.3945 0404138 152.7777  23.2121 13.52094860605684"
      },
      "geometry": {
        "type": "Point",
        "coordinates": [
          97.75928963486572,
          7.096948620179044
        ]
      }
    },
    {
      "type": "Feature",
      "properties": {
        "norad_id": 35587,
        "name": "COSMOS 2251 DEB",
        "group": "cosmos-2251-debris",
        "lat": 0.8153906251424876,
        "lon": 31.095551663983013,
        "alt_km": 717.7331954060037,
        "timestamp": "2025-12-26T21:25:53.405770+00:00",
        "meta_object_name": "COSMOS 2251 DEB",
        "meta_object_id": "1993-036AME",
        "meta_epoch": "2025-12-24T09:03:29.515680",
        "meta_mean_motion": 14.7155971,
        "meta_eccentricity": 0.01022451,
        "meta_inclination": 74.0058,
        "meta_ra_of_asc_node": 35.7588,
        "meta_arg_of_pericenter": 220.8718,
        "meta_mean_anomaly": 138.4757,
        "meta_ephemeris_type": 0,
        "meta_classification_type": "U",
        "meta_norad_cat_id": 35587,
        "meta_element_set_no": 999,
        "meta_rev_at_epoch": 66517,
        "meta_bstar": 0.00025641607,
        "meta_mean_motion_dot": 1.692e-05,
        "meta_mean_motion_ddot": 0,
        "tle_line1": "1 35587U 93036AME 25358.37742495  .00001692  00000+0  25642-3 0  9992",
        "tle_line2": "2 35587  74.0058  35.7588 0102245 220.8718 138.4757 14.71559710665172"
      },
      "geometry": {
        "type": "Point",
        "coordinates": [
          31.095551663983013,
          0.8153906251424876
        ]
      }
    },
    {
      "type": "Feature",
      "properties": {
        "norad_id": 35593,
        "name": "COSMOS 2251 DEB",
        "group": "cosmos-2251-debris",
        "lat": -42.803730461143,
        "lon": -112.34500672537546,
        "alt_km": 762.5336503299213,
        "timestamp": "2025-12-26T21:25:53.405780+00:00",
        "meta_object_name": "COSMOS 2251 DEB",
        "meta_object_id": "1993-036AML",
        "meta_epoch": "2025-12-24T00:35:28.875264",
        "meta_mean_motion": 14.25635831,
        "meta_eccentricity": 0.01050685,
        "meta_inclination": 74.0857,
        "meta_ra_of_asc_node": 268.1373,
        "meta_arg_of_pericenter": 272.0988,
        "meta_mean_anomaly": 86.8131,
        "meta_ephemeris_type": 0,
        "meta_classification_type": "U",
        "meta_norad_cat_id": 35593,
        "meta_element_set_no": 999,
        "meta_rev_at_epoch": 85226,
        "meta_bstar": 0.00070261528,
        "meta_mean_motion_dot": 1.738e-05,
        "meta_mean_motion_ddot": 0,
        "tle_line1": "1 35593U 93036AML 25358.02463976  .00001738  00000+0  70262-3 0  9994",
        "tle_line2": "2 35593  74.0857 268.1373 0105068 272.0988  86.8131 14.25635831852262"
      },
      "geometry": {
        "type": "Point",
        "coordinates": [
          -112.34500672537546,
          -42.803730461143
        ]
      }
    },
    {
      "type": "Feature",
      "properties": {
        "norad_id": 35594,
        "name": "COSMOS 2251 DEB",
        "group": "cosmos-2251-debris",
        "lat": -19.478185597389995,
        "lon": -96.1919115916758,
        "alt_km": 588.2109730340626,
        "timestamp": "2025-12-26T21:25:53.405790+00:00",
        "meta_object_name": "COSMOS 2251 DEB",
        "meta_object_id": "1993-036AMM",
        "meta_epoch": "2025-12-24T13:41:05.114112",
        "meta_mean_motion": 14.88271884,
        "meta_eccentricity": 0.00288579,
        "meta_inclination": 73.806,
        "meta_ra_of_asc_node": 82.6068,
        "meta_arg_of_pericenter": 193.3523,
        "meta_mean_anomaly": 166.6896,
        "meta_ephemeris_type": 0,
        "meta_classification_type": "U",
        "meta_norad_cat_id": 35594,
        "meta_element_set_no": 999,
        "meta_rev_at_epoch": 88361,
        "meta_bstar": 0.0016876649,
        "meta_mean_motion_dot": 0.00015714,
        "meta_mean_motion_ddot": 0,
        "tle_line1": "1 35594U 93036AMM 25358.57019808  .00015714  00000+0  16877-2 0  9996",
        "tle_line2": "2 35594  73.8060  82.6068 0028857 193.3523 166.6896 14.88271884883617"
      },
      "geometry": {
        "type": "Point",
        "coordinates": [
          -96.1919115916758,
          -19.478185597389995
        ]
      }
    },
    {
      "type": "Feature",
      "properties": {
        "norad_id": 35602,
        "name": "COSMOS 2251 DEB",
        "group": "cosmos-2251-debris",
        "lat": -12.260370026202718,
        "lon": -24.66360023227686,
        "alt_km": 407.2152802207311,
        "timestamp": "2025-12-26T21:25:53.405800+00:00",
        "meta_object_name": "COSMOS 2251 DEB",
        "meta_object_id": "1993-036AMV",
        "meta_epoch": "2025-12-26T11:29:23.041824",
        "meta_mean_motion": 15.35646504,
        "meta_eccentricity": 0.00879121,
        "meta_inclination": 73.9942,
        "meta_ra_of_asc_node": 152.6512,
        "meta_arg_of_pericenter": 215.3767,
        "meta_mean_anomaly": 208.5706,
        "meta_ephemeris_type": 0,
        "meta_classification_type": "U",
        "meta_norad_cat_id": 35602,
        "meta_element_set_no": 999,
        "meta_rev_at_epoch": 90302,
        "meta_bstar": 0.0005950352,
        "meta_mean_motion_dot": 0.00023476,
        "meta_mean_motion_ddot": 0,
        "tle_line1": "1 35602U 93036AMV 25360.47873891  .00023476  00000+0  59504-3 0  9997",
        "tle_line2": "2 35602  73.9942 152.6512 0087912 215.3767 208.5706 15.35646504903023"
      },
      "geometry": {
        "type": "Point",
        "coordinates": [
          -24.66360023227686,
          -12.260370026202718
        ]
      }
    },
    {
      "type": "Feature",
      "properties": {
        "norad_id": 35605,
        "name": "COSMOS 2251 DEB",
        "group": "cosmos-2251-debris",
        "lat": -28.60521121703152,
        "lon": -63.221118700600556,
        "alt_km": 454.0670516217597,
        "timestamp": "2025-12-26T21:25:53.405810+00:00",
        "meta_object_name": "COSMOS 2251 DEB",
        "meta_object_id": "1993-036AMY",
        "meta_epoch": "2025-12-22T14:36:44.008416",
        "meta_mean_motion": 15.38179315,
        "meta_eccentricity": 0.00228045,
        "meta_inclination": 73.869,
        "meta_ra_of_asc_node": 315.1978,
        "meta_arg_of_pericenter": 235.9327,
        "meta_mean_anomaly": 123.9715,
        "meta_ephemeris_type": 0,
        "meta_classification_type": "U",
        "meta_norad_cat_id": 35605,
        "meta_element_set_no": 999,
        "meta_rev_at_epoch": 66123,
        "meta_bstar": 0.0066900453,
        "meta_mean_motion_dot": 0.00262511,
        "meta_mean_motion_ddot": 0,
        "tle_line1": "1 35605U 93036AMY 25356.60884269  .00262511  00000+0  66900-2 0  9993",
        "tle_line2": "2 35605  73.8690 315.1978 0022804 235.9327 123.9715 15.38179315661234"
      },
      "geometry": {
        "type": "Point",
        "coordinates": [
          -63.221118700600556,
          -28.60521121703152
        ]
      }
    }
  ]
}